HAWK-11B                
1 62379U 24247C   26068.44730104  .00009093  00000+0  32842-3 0  9993
2 62379  45.0161 115.7610 0004690 333.0326  27.0314 15.28847070 67738
STARLINK-36450          
1 67317U 26002N   26068.42039134  .00031574  00000+0  11516-2 0  9997
2 67317  43.0057 327.1425 0000824 300.9814  59.0957 15.27591291 11197
